{
  "type": "FeatureCollection",
  "name": "Barragem Sao Lourenco",
  "features": [
    {
      "type": "Feature",
      "properties": {
        "Name": "Barragem São Lourenço"
      },
      "geometry": {
        "type": "Polygon",
        "coordinates": [
          [
            [
              -49.8911127,
              -26.164884
            ],
            [
              -49.8914037,
              -26.1651892
            ],
            [
              -49.8917007,
              -26.1652497
            ],
            [
              -49.8920396,
              -26.1653353
            ],
            [
              -49.8924232,
              -26.1655451
            ],
            [
              -49.8928731,
              -26.1656391
            ],
            [
              -49.8931254,
              -26.165608
            ],
            [
              -49.8932071,
              -26.1656853
            ],
            [
              -49.8932869,
              -26.1658399
            ],
            [
              -49.8934414,
              -26.1659429
            ],
            [
              -49.8936535,
              -26.1659695
            ],
            [
              -49.8940368,
              -26.1659511
            ],
            [
              -49.8943206,
              -26.1658524
            ],
            [
              -49.894601,
              -26.1657424
            ],
            [
              -49.8945475,
              -26.1658429
            ],
            [
              -49.8943908,
              -26.1660522
            ],
            [
              -49.8942976,
              -26.1661786
            ],
            [
              -49.8942283,
              -26.1664335
            ],
            [
              -49.8943513,
              -26.166615
            ],
            [
              -49.8944782,
              -26.16682
            ],
            [
              -49.8947939,
              -26.1671438
            ],
            [
              -49.8952335,
              -26.1675032
            ],
            [
              -49.8956605,
              -26.1676267
            ],
            [
              -49.8959626,
              -26.1677076
            ],
            [
              -49.8960289,
              -26.1679502
            ],
            [
              -49.8962982,
              -26.1681344
            ],
            [
              -49.8966511,
              -26.1684475
            ],
            [
              -49.8967947,
              -26.1687494
            ],
            [
              -49.8969966,
              -26.1689098
            ],
            [
              -49.8972774,
              -26.1689423
            ],
            [
              -49.897295,
              -26.1690063
            ],
            [
              -49.8971674,
              -26.1690922
            ],
            [
              -49.8969008,
              -26.1690964
            ],
            [
              -49.8966415,
              -26.1690787
            ],
            [
              -49.8963537,
              -26.1690224
            ],
            [
              -49.8962262,
              -26.1690755
            ],
            [
              -49.8957717,
              -26.1694474
            ],
            [
              -49.895686,
              -26.1697478
            ],
            [
              -49.8955904,
              -26.1699466
            ],
            [
              -49.8954019,
              -26.1700482
            ],
            [
              -49.8952589,
              -26.1701725
            ],
            [
              -49.8951155,
              -26.1699898
            ],
            [
              -49.8950314,
              -26.1700814
            ],
            [
              -49.8949976,
              -26.1701926
            ],
            [
              -49.8950899,
              -26.1703441
            ],
            [
              -49.8950427,
              -26.1705525
            ],
            [
              -49.8949595,
              -26.1706294
            ],
            [
              -49.8946747,
              -26.1706205
            ],
            [
              -49.894409,
              -26.1706199
            ],
            [
              -49.8939989,
              -26.1707991
            ],
            [
              -49.8935427,
              -26.171038
            ],
            [
              -49.8933297,
              -26.1712307
            ],
            [
              -49.8930995,
              -26.1716395
            ],
            [
              -49.8930078,
              -26.1716985
            ],
            [
              -49.8930169,
              -26.1718005
            ],
            [
              -49.8932543,
              -26.1720665
            ],
            [
              -49.8933819,
              -26.1723415
            ],
            [
              -49.8933429,
              -26.172508
            ],
            [
              -49.8934907,
              -26.1726335
            ],
            [
              -49.8936008,
              -26.172722
            ],
            [
              -49.8937821,
              -26.1727553
            ],
            [
              -49.8940405,
              -26.1727575
            ],
            [
              -49.8944263,
              -26.1730123
            ],
            [
              -49.8949375,
              -26.1731921
            ],
            [
              -49.8951794,
              -26.1733057
            ],
            [
              -49.8954451,
              -26.1732604
            ],
            [
              -49.8957632,
              -26.1733301
            ],
            [
              -49.895931,
              -26.1733933
            ],
            [
              -49.8960716,
              -26.1734786
            ],
            [
              -49.8962089,
              -26.1737846
            ],
            [
              -49.8962111,
              -26.1738839
            ],
            [
              -49.8961481,
              -26.1740215
            ],
            [
              -49.8960192,
              -26.1741758
            ],
            [
              -49.8959688,
              -26.1743887
            ],
            [
              -49.8958297,
              -26.1745817
            ],
            [
              -49.8958444,
              -26.1748274
            ],
            [
              -49.8959074,
              -26.1751183
            ],
            [
              -49.8960309,
              -26.1752314
            ],
            [
              -49.896298,
              -26.1755079
            ],
            [
              -49.8964696,
              -26.1756573
            ],
            [
              -49.8966675,
              -26.1757698
            ],
            [
              -49.896681,
              -26.1759154
            ],
            [
              -49.8965609,
              -26.1760057
            ],
            [
              -49.8965336,
              -26.1761482
            ],
            [
              -49.8963426,
              -26.1761967
            ],
            [
              -49.8961813,
              -26.1761872
            ],
            [
              -49.8959026,
              -26.1760495
            ],
            [
              -49.8956694,
              -26.175912
            ],
            [
              -49.8955462,
              -26.1758526
            ],
            [
              -49.8954736,
              -26.1758758
            ],
            [
              -49.895378,
              -26.176116
            ],
            [
              -49.8953474,
              -26.1763776
            ],
            [
              -49.8954866,
              -26.1768557
            ],
            [
              -49.8954507,
              -26.1771326
            ],
            [
              -49.89529,
              -26.1774653
            ],
            [
              -49.8952391,
              -26.1777611
            ],
            [
              -49.8953708,
              -26.1781438
            ],
            [
              -49.8955641,
              -26.1784546
            ],
            [
              -49.8955909,
              -26.1787707
            ],
            [
              -49.8958008,
              -26.1790918
            ],
            [
              -49.8957128,
              -26.1793586
            ],
            [
              -49.8955199,
              -26.1796805
            ],
            [
              -49.8950157,
              -26.1801466
            ],
            [
              -49.8949883,
              -26.1805385
            ],
            [
              -49.8951016,
              -26.1806301
            ],
            [
              -49.8953647,
              -26.1805657
            ],
            [
              -49.895215,
              -26.1809446
            ],
            [
              -49.8952209,
              -26.1811546
            ],
            [
              -49.8952775,
              -26.181651
            ],
            [
              -49.8953791,
              -26.1822746
            ],
            [
              -49.8955885,
              -26.1827156
            ],
            [
              -49.895824,
              -26.1831003
            ],
            [
              -49.8960635,
              -26.1834181
            ],
            [
              -49.8963194,
              -26.1836301
            ],
            [
              -49.8966705,
              -26.1837127
            ],
            [
              -49.8968973,
              -26.1835662
            ],
            [
              -49.8971365,
              -26.183395
            ],
            [
              -49.8974768,
              -26.1833874
            ],
            [
              -49.8977844,
              -26.1835058
            ],
            [
              -49.8979757,
              -26.183682
            ],
            [
              -49.8981703,
              -26.1838669
            ],
            [
              -49.8984966,
              -26.1840505
            ],
            [
              -49.8983929,
              -26.1841522
            ],
            [
              -49.8980657,
              -26.1840302
            ],
            [
              -49.8978472,
              -26.1838959
            ],
            [
              -49.8975615,
              -26.1837642
            ],
            [
              -49.8973704,
              -26.1835994
            ],
            [
              -49.8972568,
              -26.183692
            ],
            [
              -49.8972307,
              -26.1839359
            ],
            [
              -49.8973876,
              -26.1842621
            ],
            [
              -49.8975074,
              -26.1844362
            ],
            [
              -49.8973776,
              -26.1845796
            ],
            [
              -49.8971147,
              -26.1845773
            ],
            [
              -49.8970017,
              -26.1842649
            ],
            [
              -49.8969667,
              -26.1840439
            ],
            [
              -49.8968954,
              -26.1839336
            ],
            [
              -49.8967739,
              -26.1839128
            ],
            [
              -49.8964291,
              -26.1839378
            ],
            [
              -49.8961283,
              -26.1838883
            ],
            [
              -49.8957996,
              -26.1840002
            ],
            [
              -49.895673,
              -26.1842119
            ],
            [
              -49.895638,
              -26.1846158
            ],
            [
              -49.8954955,
              -26.1849436
            ],
            [
              -49.8953311,
              -26.1853999
            ],
            [
              -49.895082,
              -26.1855983
            ],
            [
              -49.8948492,
              -26.1858211
            ],
            [
              -49.8947312,
              -26.1860051
            ],
            [
              -49.8947497,
              -26.1858226
            ],
            [
              -49.8947918,
              -26.1855034
            ],
            [
              -49.8947966,
              -26.1849504
            ],
            [
              -49.8949326,
              -26.1847858
            ],
            [
              -49.8951791,
              -26.1844795
            ],
            [
              -49.8951586,
              -26.1840976
            ],
            [
              -49.8952545,
              -26.1837401
            ],
            [
              -49.8951085,
              -26.1832407
            ],
            [
              -49.8949081,
              -26.1827926
            ],
            [
              -49.8943852,
              -26.1820694
            ],
            [
              -49.8943096,
              -26.1817583
            ],
            [
              -49.894133,
              -26.1811609
            ],
            [
              -49.8939533,
              -26.1813143
            ],
            [
              -49.8937127,
              -26.1815631
            ],
            [
              -49.8933777,
              -26.1820796
            ],
            [
              -49.8930657,
              -26.1824735
            ],
            [
              -49.8928398,
              -26.1826984
            ],
            [
              -49.8928989,
              -26.1829736
            ],
            [
              -49.8928617,
              -26.1835797
            ],
            [
              -49.892806,
              -26.1840532
            ],
            [
              -49.8930185,
              -26.1843285
            ],
            [
              -49.8933355,
              -26.1850119
            ],
            [
              -49.8933294,
              -26.185339
            ],
            [
              -49.8932762,
              -26.185503
            ],
            [
              -49.8927438,
              -26.1862071
            ],
            [
              -49.8925717,
              -26.1863555
            ],
            [
              -49.8925069,
              -26.1867088
            ],
            [
              -49.8924576,
              -26.1869681
            ],
            [
              -49.8921952,
              -26.1872819
            ],
            [
              -49.8919673,
              -26.1873767
            ],
            [
              -49.8917161,
              -26.1873023
            ],
            [
              -49.8914933,
              -26.1872279
            ],
            [
              -49.8913726,
              -26.1870525
            ],
            [
              -49.8913026,
              -26.1869041
            ],
            [
              -49.8911062,
              -26.1868653
            ],
            [
              -49.8909647,
              -26.1868931
            ],
            [
              -49.8908669,
              -26.1871014
            ],
            [
              -49.890812,
              -26.1873316
            ],
            [
              -49.8907784,
              -26.1875104
            ],
            [
              -49.8907787,
              -26.1878647
            ],
            [
              -49.8907632,
              -26.1880104
            ],
            [
              -49.8908216,
              -26.1882544
            ],
            [
              -49.8905964,
              -26.1884718
            ],
            [
              -49.890475,
              -26.1887362
            ],
            [
              -49.8904692,
              -26.1889169
            ],
            [
              -49.8906703,
              -26.189216
            ],
            [
              -49.8908088,
              -26.1895014
            ],
            [
              -49.8909551,
              -26.1899904
            ],
            [
              -49.8910613,
              -26.1901412
            ],
            [
              -49.8909966,
              -26.1903493
            ],
            [
              -49.891184,
              -26.1906132
            ],
            [
              -49.8906546,
              -26.1911642
            ],
            [
              -49.8907017,
              -26.1913795
            ],
            [
              -49.8908525,
              -26.1916928
            ],
            [
              -49.8907961,
              -26.191939
            ],
            [
              -49.8908509,
              -26.1920472
            ],
            [
              -49.8904977,
              -26.1919549
            ],
            [
              -49.8904128,
              -26.1920449
            ],
            [
              -49.8903746,
              -26.1923539
            ],
            [
              -49.8903168,
              -26.1928469
            ],
            [
              -49.8903899,
              -26.193485
            ],
            [
              -49.8905715,
              -26.1941996
            ],
            [
              -49.8906211,
              -26.1948084
            ],
            [
              -49.8906155,
              -26.1954436
            ],
            [
              -49.8907239,
              -26.1959186
            ],
            [
              -49.8908818,
              -26.1964055
            ],
            [
              -49.8909497,
              -26.1966377
            ],
            [
              -49.8906377,
              -26.1965224
            ],
            [
              -49.8903425,
              -26.1968733
            ],
            [
              -49.8902228,
              -26.1972853
            ],
            [
              -49.8900371,
              -26.1975252
            ],
            [
              -49.8901362,
              -26.1980234
            ],
            [
              -49.8905246,
              -26.198723
            ],
            [
              -49.8900489,
              -26.198556
            ],
            [
              -49.8896226,
              -26.1986819
            ],
            [
              -49.8893198,
              -26.1990425
            ],
            [
              -49.8890465,
              -26.1993544
            ],
            [
              -49.889026,
              -26.1987321
            ],
            [
              -49.8890605,
              -26.1982327
            ],
            [
              -49.8889209,
              -26.197531
            ],
            [
              -49.8890979,
              -26.1970912
            ],
            [
              -49.8891799,
              -26.1965129
            ],
            [
              -49.8891021,
              -26.1963585
            ],
            [
              -49.8888707,
              -26.1961098
            ],
            [
              -49.8888847,
              -26.1957873
            ],
            [
              -49.889033,
              -26.1953798
            ],
            [
              -49.8891193,
              -26.1951284
            ],
            [
              -49.8890546,
              -26.1944759
            ],
            [
              -49.8890218,
              -26.1939997
            ],
            [
              -49.8890137,
              -26.1934707
            ],
            [
              -49.8889243,
              -26.1928864
            ],
            [
              -49.8889074,
              -26.192384
            ],
            [
              -49.8887925,
              -26.1921313
            ],
            [
              -49.8888204,
              -26.1918234
            ],
            [
              -49.8890463,
              -26.1914173
            ],
            [
              -49.8893235,
              -26.1911935
            ],
            [
              -49.8893014,
              -26.1908234
            ],
            [
              -49.8890199,
              -26.1906655
            ],
            [
              -49.8887128,
              -26.190266
            ],
            [
              -49.8884779,
              -26.1901334
            ],
            [
              -49.8885723,
              -26.1897545
            ],
            [
              -49.8884329,
              -26.189323
            ],
            [
              -49.8882628,
              -26.1889587
            ],
            [
              -49.8882568,
              -26.1886509
            ],
            [
              -49.8883631,
              -26.1885668
            ],
            [
              -49.8889818,
              -26.1885335
            ],
            [
              -49.8890123,
              -26.1879873
            ],
            [
              -49.8890251,
              -26.1876618
            ],
            [
              -49.8892313,
              -26.1874944
            ],
            [
              -49.8890016,
              -26.1874566
            ],
            [
              -49.8885803,
              -26.1876852
            ],
            [
              -49.8883389,
              -26.1879582
            ],
            [
              -49.8881222,
              -26.1880946
            ],
            [
              -49.8879078,
              -26.1883708
            ],
            [
              -49.8879551,
              -26.1887901
            ],
            [
              -49.8879946,
              -26.1892217
            ],
            [
              -49.8880384,
              -26.1897108
            ],
            [
              -49.8881183,
              -26.189993
            ],
            [
              -49.8880601,
              -26.1901221
            ],
            [
              -49.8878189,
              -26.1906558
            ],
            [
              -49.8876222,
              -26.1907547
            ],
            [
              -49.887557,
              -26.1906648
            ],
            [
              -49.8873533,
              -26.1910789
            ],
            [
              -49.8871381,
              -26.1912172
            ],
            [
              -49.8870541,
              -26.1910557
            ],
            [
              -49.8868975,
              -26.1913302
            ],
            [
              -49.8869369,
              -26.1909931
            ],
            [
              -49.8871,
              -26.1907161
            ],
            [
              -49.8870635,
              -26.1906029
            ],
            [
              -49.8872973,
              -26.1905696
            ],
            [
              -49.8873953,
              -26.1904812
            ],
            [
              -49.8874513,
              -26.1902237
            ],
            [
              -49.8875865,
              -26.1898506
            ],
            [
              -49.8876219,
              -26.189458
            ],
            [
              -49.8875924,
              -26.1889478
            ],
            [
              -49.8875074,
              -26.1886407
            ],
            [
              -49.8873083,
              -26.188527
            ],
            [
              -49.8871413,
              -26.1884933
            ],
            [
              -49.8870632,
              -26.1883929
            ],
            [
              -49.8871904,
              -26.1882609
            ],
            [
              -49.8873899,
              -26.1881351
            ],
            [
              -49.8873089,
              -26.188005
            ],
            [
              -49.8870684,
              -26.1879715
            ],
            [
              -49.8867141,
              -26.187811
            ],
            [
              -49.8865732,
              -26.1875882
            ],
            [
              -49.8864263,
              -26.1872051
            ],
            [
              -49.8864898,
              -26.187084
            ],
            [
              -49.8866811,
              -26.1873866
            ],
            [
              -49.8869313,
              -26.1876385
            ],
            [
              -49.8872946,
              -26.187768
            ],
            [
              -49.8876237,
              -26.1877604
            ],
            [
              -49.888024,
              -26.1875673
            ],
            [
              -49.8886004,
              -26.1872636
            ],
            [
              -49.8889285,
              -26.1870172
            ],
            [
              -49.8891789,
              -26.186729
            ],
            [
              -49.889411,
              -26.1866507
            ],
            [
              -49.8898593,
              -26.1863344
            ],
            [
              -49.8901061,
              -26.1859593
            ],
            [
              -49.8902267,
              -26.1859515
            ],
            [
              -49.890334,
              -26.1858287
            ],
            [
              -49.8906186,
              -26.1854197
            ],
            [
              -49.8907069,
              -26.1852679
            ],
            [
              -49.8908131,
              -26.185189
            ],
            [
              -49.8909495,
              -26.1850249
            ],
            [
              -49.8911193,
              -26.1847531
            ],
            [
              -49.8912023,
              -26.1844982
            ],
            [
              -49.8911845,
              -26.1843531
            ],
            [
              -49.8910408,
              -26.1841739
            ],
            [
              -49.8908587,
              -26.1839972
            ],
            [
              -49.8908062,
              -26.1839003
            ],
            [
              -49.8908758,
              -26.1837973
            ],
            [
              -49.8909943,
              -26.1837607
            ],
            [
              -49.8912088,
              -26.183626
            ],
            [
              -49.8912794,
              -26.1834266
            ],
            [
              -49.8912856,
              -26.1831873
            ],
            [
              -49.891212,
              -26.1830234
            ],
            [
              -49.8911309,
              -26.1828327
            ],
            [
              -49.8911513,
              -26.1826903
            ],
            [
              -49.8912281,
              -26.1825767
            ],
            [
              -49.8912747,
              -26.1824696
            ],
            [
              -49.8914228,
              -26.182346
            ],
            [
              -49.8915349,
              -26.1821968
            ],
            [
              -49.8916,
              -26.1821131
            ],
            [
              -49.8917551,
              -26.1820772
            ],
            [
              -49.8918813,
              -26.1820091
            ],
            [
              -49.8919797,
              -26.1818674
            ],
            [
              -49.8921079,
              -26.1815554
            ],
            [
              -49.8921209,
              -26.1813415
            ],
            [
              -49.892133,
              -26.1811417
            ],
            [
              -49.8921831,
              -26.181079
            ],
            [
              -49.892221,
              -26.1809599
            ],
            [
              -49.8922762,
              -26.1809305
            ],
            [
              -49.8924072,
              -26.1808155
            ],
            [
              -49.8926989,
              -26.1805496
            ],
            [
              -49.8927699,
              -26.1804474
            ],
            [
              -49.8926924,
              -26.1802912
            ],
            [
              -49.8924622,
              -26.180102
            ],
            [
              -49.8922561,
              -26.1800223
            ],
            [
              -49.8920277,
              -26.1799314
            ],
            [
              -49.892128,
              -26.1797999
            ],
            [
              -49.8923669,
              -26.1796559
            ],
            [
              -49.8925078,
              -26.1795325
            ],
            [
              -49.8927283,
              -26.1794727
            ],
            [
              -49.8928967,
              -26.179473
            ],
            [
              -49.8930842,
              -26.1793512
            ],
            [
              -49.8932721,
              -26.1791883
            ],
            [
              -49.8934278,
              -26.1789578
            ],
            [
              -49.8934963,
              -26.1786261
            ],
            [
              -49.8935909,
              -26.1784664
            ],
            [
              -49.8936007,
              -26.1783311
            ],
            [
              -49.8932211,
              -26.178286
            ],
            [
              -49.8931197,
              -26.178226
            ],
            [
              -49.8929955,
              -26.178045
            ],
            [
              -49.8929235,
              -26.1778824
            ],
            [
              -49.8928599,
              -26.1777883
            ],
            [
              -49.8929166,
              -26.177712
            ],
            [
              -49.8931507,
              -26.1775802
            ],
            [
              -49.8933823,
              -26.1774149
            ],
            [
              -49.8934709,
              -26.1772826
            ],
            [
              -49.8935031,
              -26.1771172
            ],
            [
              -49.8933111,
              -26.1768703
            ],
            [
              -49.8932191,
              -26.1766004
            ],
            [
              -49.8932777,
              -26.1763258
            ],
            [
              -49.8933527,
              -26.1761382
            ],
            [
              -49.8933484,
              -26.1760379
            ],
            [
              -49.8935269,
              -26.1758536
            ],
            [
              -49.8935909,
              -26.1757634
            ],
            [
              -49.8936371,
              -26.1755189
            ],
            [
              -49.8937619,
              -26.1751712
            ],
            [
              -49.8938163,
              -26.1750861
            ],
            [
              -49.8939458,
              -26.1749709
            ],
            [
              -49.8940778,
              -26.1747863
            ],
            [
              -49.8942611,
              -26.1745909
            ],
            [
              -49.8944604,
              -26.1744174
            ],
            [
              -49.8947,
              -26.174222
            ],
            [
              -49.8949886,
              -26.1740918
            ],
            [
              -49.8951268,
              -26.1739923
            ],
            [
              -49.8951619,
              -26.173961
            ],
            [
              -49.8951696,
              -26.1738175
            ],
            [
              -49.895082,
              -26.1737593
            ],
            [
              -49.8948068,
              -26.1736488
            ],
            [
              -49.8941502,
              -26.1734371
            ],
            [
              -49.8939909,
              -26.1734068
            ],
            [
              -49.8937602,
              -26.173389
            ],
            [
              -49.8935306,
              -26.173452
            ],
            [
              -49.8933725,
              -26.1735812
            ],
            [
              -49.8932408,
              -26.1736405
            ],
            [
              -49.893157,
              -26.1737089
            ],
            [
              -49.8929228,
              -26.1737595
            ],
            [
              -49.8928077,
              -26.1738423
            ],
            [
              -49.8927344,
              -26.1740267
            ],
            [
              -49.8925872,
              -26.1740895
            ],
            [
              -49.8924968,
              -26.1742006
            ],
            [
              -49.8923616,
              -26.1742366
            ],
            [
              -49.892208,
              -26.174157
            ],
            [
              -49.8922378,
              -26.1739346
            ],
            [
              -49.8923447,
              -26.1738375
            ],
            [
              -49.8926149,
              -26.173571
            ],
            [
              -49.8929754,
              -26.173219
            ],
            [
              -49.8929815,
              -26.1731144
            ],
            [
              -49.8928035,
              -26.1729761
            ],
            [
              -49.8922747,
              -26.172726
            ],
            [
              -49.8919916,
              -26.1725528
            ],
            [
              -49.8914355,
              -26.1725848
            ],
            [
              -49.8913684,
              -26.1724832
            ],
            [
              -49.8915751,
              -26.172406
            ],
            [
              -49.8918129,
              -26.1724097
            ],
            [
              -49.8919198,
              -26.1723822
            ],
            [
              -49.8919968,
              -26.1721744
            ],
            [
              -49.8920727,
              -26.1718364
            ],
            [
              -49.8920863,
              -26.1714822
            ],
            [
              -49.8920389,
              -26.1713775
            ],
            [
              -49.8919355,
              -26.1712911
            ],
            [
              -49.8922018,
              -26.1712545
            ],
            [
              -49.8922578,
              -26.1711192
            ],
            [
              -49.8924034,
              -26.1709617
            ],
            [
              -49.892619,
              -26.1707526
            ],
            [
              -49.8928141,
              -26.170572
            ],
            [
              -49.8929517,
              -26.1705101
            ],
            [
              -49.8930889,
              -26.1703873
            ],
            [
              -49.8932013,
              -26.1701682
            ],
            [
              -49.8932833,
              -26.17004
            ],
            [
              -49.8933293,
              -26.1699474
            ],
            [
              -49.8934493,
              -26.1698832
            ],
            [
              -49.89365,
              -26.1698859
            ],
            [
              -49.8938555,
              -26.1698135
            ],
            [
              -49.8940832,
              -26.1696618
            ],
            [
              -49.8941943,
              -26.1694685
            ],
            [
              -49.8943529,
              -26.1692793
            ],
            [
              -49.8945377,
              -26.1690775
            ],
            [
              -49.8947907,
              -26.1687895
            ],
            [
              -49.8948944,
              -26.1686945
            ],
            [
              -49.8949745,
              -26.1685965
            ],
            [
              -49.89499,
              -26.1684936
            ],
            [
              -49.8950422,
              -26.1684221
            ],
            [
              -49.8951125,
              -26.168353
            ],
            [
              -49.8951585,
              -26.1682333
            ],
            [
              -49.8951176,
              -26.1681135
            ],
            [
              -49.8950589,
              -26.1680048
            ],
            [
              -49.8949976,
              -26.1679555
            ],
            [
              -49.894869,
              -26.1678931
            ],
            [
              -49.8946737,
              -26.1677889
            ],
            [
              -49.8944496,
              -26.1676749
            ],
            [
              -49.8944112,
              -26.1676739
            ],
            [
              -49.8943666,
              -26.1675581
            ],
            [
              -49.89432,
              -26.1675515
            ],
            [
              -49.8942613,
              -26.1674933
            ],
            [
              -49.8941399,
              -26.1674527
            ],
            [
              -49.8940772,
              -26.1674034
            ],
            [
              -49.893981,
              -26.1673317
            ],
            [
              -49.8939069,
              -26.1673335
            ],
            [
              -49.8937957,
              -26.1673182
            ],
            [
              -49.8936607,
              -26.1673222
            ],
            [
              -49.8935962,
              -26.1672536
            ],
            [
              -49.8934898,
              -26.1672513
            ],
            [
              -49.8934178,
              -26.1671853
            ],
            [
              -49.8932451,
              -26.1671418
            ],
            [
              -49.8929634,
              -26.1670608
            ],
            [
              -49.8927758,
              -26.1669566
            ],
            [
              -49.8926118,
              -26.1668957
            ],
            [
              -49.8925479,
              -26.1668719
            ],
            [
              -49.8923694,
              -26.1667038
            ],
            [
              -49.8922784,
              -26.1666556
            ],
            [
              -49.8920825,
              -26.1665591
            ],
            [
              -49.8918765,
              -26.1663977
            ],
            [
              -49.8917974,
              -26.1662682
            ],
            [
              -49.8916631,
              -26.1661046
            ],
            [
              -49.8915343,
              -26.1660067
            ],
            [
              -49.8914214,
              -26.1659497
            ],
            [
              -49.8913286,
              -26.1659067
            ],
            [
              -49.8911895,
              -26.1658919
            ],
            [
              -49.8910872,
              -26.1658863
            ],
            [
              -49.8909394,
              -26.1658112
            ],
            [
              -49.890814,
              -26.1657007
            ],
            [
              -49.8907152,
              -26.1655476
            ],
            [
              -49.8906127,
              -26.1654577
            ],
            [
              -49.8905776,
              -26.1653708
            ],
            [
              -49.8904497,
              -26.1652443
            ],
            [
              -49.8903413,
              -26.1651025
            ],
            [
              -49.890279,
              -26.1650326
            ],
            [
              -49.8902103,
              -26.1650768
            ],
            [
              -49.8901455,
              -26.1650431
            ],
            [
              -49.8901241,
              -26.1649892
            ],
            [
              -49.8901729,
              -26.1649333
            ],
            [
              -49.8901163,
              -26.1648155
            ],
            [
              -49.8902098,
              -26.1647463
            ],
            [
              -49.8902091,
              -26.1647169
            ],
            [
              -49.8902597,
              -26.1646716
            ],
            [
              -49.8903185,
              -26.1646564
            ],
            [
              -49.8904105,
              -26.1646268
            ],
            [
              -49.8904935,
              -26.1645853
            ],
            [
              -49.8905756,
              -26.1645403
            ],
            [
              -49.890666,
              -26.1644652
            ],
            [
              -49.8907427,
              -26.1643968
            ],
            [
              -49.8911127,
              -26.164884
            ]
          ]
        ]
      }
    }
  ]
}
